NORAD_CAT_ID,OBJECT_NAME,OBJECT_TYPE,EPOCH,MEAN_MOTION,ECCENTRICITY,INCLINATION,RA_OF_ASC_NODE,ARG_OF_PERICENTER,MEAN_ANOMALY,BSTAR,MEAN_MOTION_DOT,MEAN_MOTION_DDOT,TLE_LINE0,TLE_LINE1,TLE_LINE2,SEMIMAJOR_AXIS,PERIOD,APOGEE,PERIGEE,DECAYED
55416.0,STARLINK-5624,PAYLOAD,2023-09-18 05:31:17,14.98339297,0.0003349,70.0004,202.36,270.7479,89.3296,-4.179e-06,-1.43e-06,0.0,0 STARLINK-5624,1 55416U 23014AB  23261.23006238 -.00000143  00000-0 -41790-5 0  9995,2 55416  70.0004 202.3600 0003349 270.7479  89.3296 14.98339297 35293,6950.164,96.106,574.357,569.702,0.0
55416.0,STARLINK-5624,PAYLOAD,2023-09-18 21:32:38,14.98328947,0.0002973,70.0014,200.6771,261.7399,98.3423,5.1197e-05,5.18e-06,0.0,0 STARLINK-5624,1 55416U 23014AB  23261.89766639  .00000518  00000-0  51197-4 0  9990,2 55416  70.0014 200.6771 0002973 261.7399  98.3423 14.98328947 36335,6950.196,96.107,574.127,569.995,0.0
55416.0,STARLINK-5624,PAYLOAD,2023-09-19 02:21:02,14.98333084,0.0003238,70.0007,200.172,265.8828,94.1961,6.3141e-05,6.61e-06,0.0,0 STARLINK-5624,1 55416U 23014AB  23262.09794345  .00000661  00000-0  63141-4 0  9999,2 55416  70.0007 200.1720 0003238 265.8828  94.1961 14.98333084 35421,6950.183,96.107,574.299,569.798,0.0
55416.0,STARLINK-5624,PAYLOAD,2023-09-20 02:23:03,14.98326959,0.0003106,70.0009,197.6474,269.0029,91.0774,-4.0154e-05,-5.72e-06,0.0,0 STARLINK-5624,1 55416U 23014AB  23263.09934939 -.00000572  00000-0 -40154-4 0  9997,2 55416  70.0009 197.6474 0003106 269.0029  91.0774 14.98326959 35579,6950.202,96.107,574.226,569.909,0.0
55416.0,STARLINK-5624,PAYLOAD,2023-09-20 13:36:00,14.98326717,0.0002965,70.0014,196.4689,276.569,83.5131,-0.00010954,-1.4e-05,0.0,0 STARLINK-5624,1 55416U 23014AB  23263.56667280 -.00001400  00000-0 -10954-3 0  9996,2 55416  70.0014 196.4689 0002965 276.5690  83.5131 14.98326717 36586,6950.203,96.107,574.129,570.007,0.0
55416.0,STARLINK-5624,PAYLOAD,2023-09-20 21:36:41,14.98317942,0.0002763,70.0018,195.6275,272.1834,87.9009,-5.0442e-05,-6.95e-06,0.0,0 STARLINK-5624,1 55416U 23014AB  23263.90047827 -.00000695  00000-0 -50442-4 0  9995,2 55416  70.0018 195.6275 0002763 272.1834  87.9009 14.98317942 36638,6950.23,96.108,574.016,570.175,0.0
55416.0,STARLINK-5624,PAYLOAD,2023-09-21 02:25:05,14.98321075,0.0002576,70.0018,195.1223,266.5799,93.5065,-5.6096e-05,-7.62e-06,0.0,0 STARLINK-5624,1 55416U 23014AB  23264.10075776 -.00000762  00000-0 -56096-4 0  9998,2 55416  70.0018 195.1223 0002576 266.5799  93.5065 14.98321075 35721,6950.22,96.108,573.876,570.295,0.0
55416.0,STARLINK-5624,PAYLOAD,2023-09-21 05:37:21,14.98322697,0.0002773,70.0017,194.7859,271.8215,88.2627,-2.767e-06,-1.26e-06,0.0,0 STARLINK-5624,1 55416U 23014AB  23264.23427623 -.00000126  00000-0 -27670-5 0  9995,2 55416  70.0017 194.7859 0002773 271.8215  88.2627 14.98322697 36683,6950.215,96.107,574.008,570.153,0.0
55416.0,STARLINK-5624,PAYLOAD,2023-09-21 21:38:41,14.98329407,0.0003113,70.001,193.1029,271.0702,89.0101,9.2294e-05,1.008e-05,0.0,0 STARLINK-5624,1 55416U 23014AB  23264.90186883  .00001008  00000-0  92294-4 0  9990,2 55416  70.0010 193.1029 0003113 271.0702  89.0101 14.98329407 36783,6950.195,96.107,574.223,569.896,0.0
55416.0,STARLINK-5624,PAYLOAD,2023-09-22 02:27:05,14.98344703,0.0002544,70.0011,192.5981,265.052,95.0349,-1.4878e-06,-1.11e-06,0.0,0 STARLINK-5624,1 55416U 23014AB  23265.10214170 -.00000111  00000-0 -14878-5 0  9993,2 55416  70.0011 192.5981 0002544 265.0520  95.0349 14.98344703 35878,6950.147,96.106,573.781,570.244,0.0
55416.0,STARLINK-5624,PAYLOAD,2023-09-22 05:39:21,14.98337837,0.0002879,70.0013,192.2609,273.4971,86.5859,0.00019957,2.29e-05,0.0,0 STARLINK-5624,1 55416U 23014AB  23265.23566091  .00002290  00000-0  19957-3 0  9998,2 55416  70.0013 192.2609 0002879 273.4971  86.5859 14.98337837 36836,6950.169,96.106,574.035,570.033,0.0
55416.0,STARLINK-5624,PAYLOAD,2023-09-22 21:40:42,14.98328357,0.0002639,70.0025,190.5806,269.3852,90.7005,0.00016711,1.901e-05,0.0,0 STARLINK-5624,1 55416U 23014AB  23265.90326686  .00001901  00000-0  16711-3 0  9999,2 55416  70.0025 190.5806 0002639 269.3852  90.7005 14.98328357 36933,6950.198,96.107,573.897,570.229,0.0
55416.0,STARLINK-5624,PAYLOAD,2023-09-23 00:52:58,14.98326885,0.000268,70.0023,190.2437,268.6079,91.4773,0.00014046,1.583e-05,0.0,0 STARLINK-5624,1 55416U 23014AB  23266.03678849  .00001583  00000-0  14046-3 0  9990,2 55416  70.0023 190.2437 0002680 268.6079  91.4773 14.98326885 36010,6950.203,96.107,573.93,570.205,0.0
55416.0,STARLINK-5624,PAYLOAD,2023-09-23 04:05:14,14.98329071,0.0002683,70.0021,189.9069,267.2361,92.8491,0.00014203,1.602e-05,0.0,0 STARLINK-5624,1 55416U 23014AB  23266.17030702  .00001602  00000-0  14203-3 0  9992,2 55416  70.0021 189.9069 0002683 267.2361  92.8491 14.98329071 36973,6950.196,96.107,573.926,570.196,0.0
55416.0,STARLINK-5624,PAYLOAD,2023-09-24 02:31:07,14.98328113,0.0002528,70.0027,187.5506,247.6823,112.4069,-6.7322e-05,-8.96e-06,0.0,0 STARLINK-5624,1 55416U 23014AB  23267.10495119 -.00000896  00000-0 -67322-4 0  9990,2 55416  70.0027 187.5506 0002528 247.6823 112.4069 14.98328113 36170,6950.199,96.107,573.821,570.307,0.0
55416.0,STARLINK-5624,PAYLOAD,2023-09-24 04:07:15,14.98327853,0.0002623,70.0026,187.3821,250.9696,109.1179,-5.7596e-05,-7.8e-06,0.0,0 STARLINK-5624,1 55416U 23014AB  23267.17171110 -.00000780  00000-0 -57596-4 0  9993,2 55416  70.0026 187.3821 0002623 250.9696 109.1179 14.98327853 37129,6950.2,96.107,573.888,570.241,0.0
55416.0,STARLINK-5624,PAYLOAD,2023-09-24 21:44:44,14.98330463,0.0002625,70.0023,185.5305,245.9567,114.1317,-2.4257e-05,-3.82e-06,0.0,0 STARLINK-5624,1 55416U 23014AB  23267.90606763 -.00000382  00000-0 -24257-4 0  9997,2 55416  70.0023 185.5305 0002625 245.9567 114.1317 14.98330463 37239,6950.191,96.107,573.881,570.232,0.0
55416.0,STARLINK-5624,PAYLOAD,2023-09-25 02:33:08,14.98330924,0.000262,70.0024,185.0258,245.2273,114.8614,-1.6204e-05,-2.86e-06,0.0,0 STARLINK-5624,1 55416U 23014AB  23268.10634708 -.00000286  00000-0 -16204-4 0  9996,2 55416  70.0024 185.0258 0002620 245.2273 114.8614 14.98330924 36322,6950.19,96.107,573.876,570.234,0.0
55416.0,STARLINK-5624,PAYLOAD,2023-09-25 12:09:57,14.98323147,0.0002818,70.0012,184.0138,274.8521,85.2316,5.2325e-05,5.31e-06,0.0,0 STARLINK-5624,1 55416U 23014AB  23268.50691190  .00000531  00000-0  52325-4 0  9993,2 55416  70.0012 184.0138 0002818 274.8521  85.2316 14.98323147 37328,6950.214,96.107,574.038,570.121,0.0
55416.0,STARLINK-5624,PAYLOAD,2023-09-25 21:46:45,14.98324204,0.0002828,70.0013,183.0032,261.8848,98.199,8.6725e-06,1.1e-07,0.0,0 STARLINK-5624,1 55416U 23014AB  23268.90747203  .00000011  00000-0  86725-5 0  9999,2 55416  70.0013 183.0032 0002828 261.8848  98.1990 14.98324204 37382,6950.211,96.107,574.041,570.11,0.0
55416.0,STARLINK-5624,PAYLOAD,2023-09-26 02:35:08,14.98344513,0.0002892,70.0018,182.4997,257.2644,102.8192,0.00023936,2.765e-05,0.0,0 STARLINK-5624,1 55416U 23014AB  23269.10773270  .00002765  00000-0  23936-3 0  9996,2 55416  70.0018 182.4997 0002892 257.2644 102.8192 14.98344513 36475,6950.148,96.106,574.023,570.003,0.0
55416.0,STARLINK-5624,PAYLOAD,2023-09-26 04:11:13,14.98377821,0.0002508,70.002,182.3319,270.8103,89.2768,0.00060203,7.106e-05,0.0,0 STARLINK-5624,1 55416U 23014AB  23269.17446440  .00007106  00000-0  60203-3 0  9991,2 55416  70.0020 182.3319 0002508 270.8103  89.2768 14.98377821 36486,6950.045,96.104,573.653,570.167,0.0
55416.0,STARLINK-5624,PAYLOAD,2023-09-26 20:12:38,14.98311923,0.0003939,70.0009,180.647,289.1587,70.9146,-0.00026378,-3.238e-05,0.0,0 STARLINK-5624,1 55416U 23014AB  23269.84211335 -.00003238  00000-0 -26378-3 0  9997,2 55416  70.0009 180.6470 0003939 289.1587  70.9146 14.98311923 37524,6950.249,96.108,574.851,569.376,0.0
55416.0,STARLINK-5624,PAYLOAD,2023-09-27 01:01:02,14.98311468,0.0002942,70.0008,180.1418,270.2329,89.8493,-0.00026805,-3.288e-05,0.0,0 STARLINK-5624,1 55416U 23014AB  23270.04239394 -.00003288  00000-0 -26805-3 0  9996,2 55416  70.0008 180.1418 0002942 270.2329  89.8493 14.98311468 36615,6950.25,96.108,574.16,570.07,0.0
55416.0,STARLINK-5624,PAYLOAD,2023-09-27 04:13:18,14.98316962,0.0003151,70.0007,179.8077,269.5068,90.5729,-0.00022661,-2.795e-05,0.0,0 STARLINK-5624,1 55416U 23014AB  23270.17590991 -.00002795  00000-0 -22661-3 0  9991,2 55416  70.0007 179.8077 0003151 269.5068  90.5729 14.98316962 36631,6950.233,96.108,574.288,569.908,0.0
55416.0,STARLINK-5624,PAYLOAD,2023-09-27 18:38:32,14.98302254,0.0003116,70.0007,178.2913,276.0948,83.9856,-0.00025723,-3.159e-05,0.0,0 STARLINK-5624,1 55416U 23014AB  23270.77676793 -.00003159  00000-0 -25723-3 0  9999,2 55416  70.0007 178.2913 0003116 276.0948  83.9856 14.98302254 36720,6950.279,96.109,574.309,569.978,0.0
55416.0,STARLINK-5624,PAYLOAD,2023-09-28 04:15:21,14.98300889,0.0003338,70.0001,177.2819,265.0176,95.0602,-0.00028043,-3.435e-05,0.0,0 STARLINK-5624,1 55416U 23014AB  23271.17733493 -.00003435  00000-0 -28043-3 0  9990,2 55416  70.0001 177.2819 0003338 265.0176  95.0602 14.98300889 37721,6950.283,96.109,574.468,569.828,0.0
55416.0,STARLINK-5624,PAYLOAD,2023-09-28 21:52:48,14.98312169,0.0003274,70.0007,175.4296,277.2308,82.8479,0.00025132,2.906e-05,0.0,0 STARLINK-5624,1 55416U 23014AB  23271.91167405  .00002906  00000-0  25132-3 0  9992,2 55416  70.0007 175.4296 0003274 277.2308  82.8479 14.98312169 37839,6950.248,96.108,574.389,569.838,0.0
55416.0,STARLINK-5624,PAYLOAD,2023-09-29 18:42:32,14.98323527,0.0002655,70.0023,173.2432,252.7435,107.3433,0.00048671,5.718e-05,0.0,0 STARLINK-5624,1 55416U 23014AB  23272.77954346  .00005718  00000-0  48671-3 0  9992,2 55416  70.0023 173.2432 0002655 252.7435 107.3433 14.98323527 37020,6950.213,96.107,573.923,570.233,0.0
55416.0,STARLINK-5624,PAYLOAD,2023-09-30 02:43:12,14.98329217,0.0002841,70.0015,172.4002,266.2636,93.8198,0.0004668,5.481e-05,0.0,0 STARLINK-5624,1 55416U 23014AB  23273.11334182  .00005481  00000-0  46680-3 0  9996,2 55416  70.0015 172.4002 0002841 266.2636  93.8198 14.98329217 38014,6950.195,96.107,574.035,570.086,0.0
